{
  "norad_id": 56346,
  "name": "STARLINK-5837",
  "history": [
    {
      "epoch": "2026-05-03T13:22:18.573888Z",
      "apogee_km": 550.2656806381901,
      "perigee_km": 548.7291313269434,
      "latitude_deg": 4.0641891753375616e-05,
      "longitude_deg": 62.14926577098877,
      "height_km": 553.1767223190064,
      "semi_major_axis_km": 6927.634405982567,
      "eccentricity": 0.0001109,
      "inclination_deg": 97.5411,
      "raan_deg": 124.1858,
      "arg_perigee_deg": 142.9607,
      "mean_anomaly_deg": 217.1697,
      "mean_motion_rev_day": 15.05654482
    }
  ]
}